{
    "links": {
        "self": "http://www.neowsapp.com/rest/v1/neo/3550138?api_key=iIulBulltgU6a56xZRHN4H3l9WmuAYTsLGpBGhQ2"
    },
    "id": "3550138",
    "neo_reference_id": "3550138",
    "name": "(2010 VP)",
    "designation": "2010 VP",
    "nasa_jpl_url": "http://ssd.jpl.nasa.gov/sbdb.cgi?sstr=3550138",
    "absolute_magnitude_h": 23.7,
    "estimated_diameter": {
        "kilometers": {
            "estimated_diameter_min": 0.0483676488,
            "estimated_diameter_max": 0.1081533507
        },
        "meters": {
            "estimated_diameter_min": 48.3676488219,
            "estimated_diameter_max": 108.1533506775
        },
        "miles": {
            "estimated_diameter_min": 0.0300542543,
            "estimated_diameter_max": 0.0672033557
        },
        "feet": {
            "estimated_diameter_min": 158.6865169607,
            "estimated_diameter_max": 354.8338390368
        }
    },
    "is_potentially_hazardous_asteroid": false,
    "close_approach_data": [
        {
            "close_approach_date": "1950-07-01",
            "close_approach_date_full": "1950-Jul-01 05:39",
            "epoch_date_close_approach": -615493260000,
            "relative_velocity": {
                "kilometers_per_second": "17.8910448204",
                "kilometers_per_hour": "64407.7613536132",
                "miles_per_hour": "40020.4781588604"
            },
            "miss_distance": {
                "astronomical": "0.0644208788",
                "lunar": "25.0597218532",
                "kilometers": "9637226.252008156",
                "miles": "5988294.7120823128"
            },
            "orbiting_body": "Mars"
        },
        {
            "close_approach_date": "2010-11-28",
            "close_approach_date_full": "2010-Nov-28 14:06",
            "epoch_date_close_approach": 1290953160000,
            "relative_velocity": {
                "kilometers_per_second": "12.2291957394",
                "kilometers_per_hour": "44025.1046619768",
                "miles_per_hour": "27355.4879495489"
            },
            "miss_distance": {
                "astronomical": "0.0966885497",
                "lunar": "37.6118458333",
                "kilometers": "14464401.088509139",
                "miles": "8987762.0683345582"
            },
            "orbiting_body": "Earth"
        }
    ],
    "orbital_data": {
        "orbit_id": "13",
        "orbit_determination_date": "2017-04-06 08:55:59",
        "first_observation_date": "2010-11-01",
        "last_observation_date": "2010-11-11",
        "data_arc_in_days": 10,
        "observations_used": 25,
        "orbit_uncertainty": "8",
        "minimum_orbit_intersection": ".0262144",
        "jupiter_tisserand_invariant": "3.619",
        "epoch_osculation": "2455503.5",
        "eccentricity": ".6011730306177194",
        "semi_major_axis": "1.971843784417206",
        "inclination": "5.248450702380622",
        "ascending_node_longitude": "22.33355903066556",
        "orbital_period": "1011.363289595456",
        "perihelion_distance": ".7864244806344013",
        "perihelion_argument": "98.68517643124399",
        "aphelion_distance": "3.157263088200011",
        "perihelion_time": "2455567.251947262921",
        "mean_anomaly": "337.307164249721",
        "mean_motion": ".3559551782268067",
        "equinox": "J2000",
        "orbit_class": {
            "orbit_class_type": "APO",
            "orbit_class_description": "Near-Earth asteroid orbits which cross the Earth’s orbit similar to that of 1862 Apollo",
            "orbit_class_range": "a (semi-major axis) > 1.0 AU; q (perihelion) < 1.017 AU"
        }
    },
    "is_sentry_object": false
}